IRIDIUM 921 [-]         
1 24873U 97034E   24050.31474626  .00028774  00000+0  92726-3 0  9997
2 24873  86.3882 346.5942 0005144  33.8696 326.2881 15.32038513456942
IRIDIUM 26 [-]          
1 24903U 97043A   24050.47615710  .00000733  00000+0  24458-3 0  9991
2 24903  86.3978 313.5959 0001925  85.3799 274.7618 14.36214929387299
IRIDIUM 22 [-]          
1 24907U 97043E   24050.44026715  .00000696  00000+0  23711-3 0  9992
2 24907  86.3987 316.7532 0002155  83.8443 276.2999 14.35111524387374
DUMMY MASS 1 [-]        
1 24925U 97048A   24050.82236334  .00000961  00000+0  10663-3 0  9996
2 24925  86.3389 358.6630 0009063  67.0353 293.1826 14.86058293433562
DUMMY MASS 2 [-]        
1 24926U 97048B   24050.83979545  .00000949  00000+0  10584-3 0  9994
2 24926  86.3388   0.1760 0010018  74.7935 285.4396 14.85817587433359
IRIDIUM 29 [-]          
1 24944U 97051A   24050.55036101  .00000836  00000+0  28381-3 0  9998
2 24944  86.4009 346.6343 0002379  80.9005 279.2461 14.35566248383867
IRIDIUM 33 [-]          
1 24946U 97051C   24050.53741026  .00000585  00000+0  20166-3 0  9991
2 24946  86.3923 345.9011 0006698 202.6139 157.4763 14.34265616383402
IRIDIUM 28 [-]          
1 24948U 97051E   24050.56301852  .00000845  00000+0  28132-3 0  9995
2 24948  86.4014 344.4238 0001854  92.5517 267.5892 14.36514544384390
